<?xml version="1.0" encoding="UTF-8"?>
<ndm xmlns:xsi="http://www.w3.org/2001/XMLSchema-instance" xsi:noNamespaceSchemaLocation="https://sanaregistry.org/r/ndmxml_unqualified/ndmxml-2.0.0-master-2.0.xsd">
<omm id="CCSDS_OMM_VERS" version="2.0">
<header><CREATION_DATE/><ORIGINATOR/></header><body><segment><metadata><OBJECT_NAME>ONEWEB-0721</OBJECT_NAME><OBJECT_ID>2023-068R</OBJECT_ID><CENTER_NAME>EARTH</CENTER_NAME><REF_FRAME>TEME</REF_FRAME><TIME_SYSTEM>UTC</TIME_SYSTEM><MEAN_ELEMENT_THEORY>SGP4</MEAN_ELEMENT_THEORY></metadata><data><meanElements><EPOCH>2025-06-15T00:53:44.927520</EPOCH><MEAN_MOTION>13.22438699</MEAN_MOTION><ECCENTRICITY>.0002044</ECCENTRICITY><INCLINATION>86.6812</INCLINATION><RA_OF_ASC_NODE>202.5144</RA_OF_ASC_NODE><ARG_OF_PERICENTER>94.3042</ARG_OF_PERICENTER><MEAN_ANOMALY>265.8325</MEAN_ANOMALY></meanElements><tleParameters><EPHEMERIS_TYPE>0</EPHEMERIS_TYPE><CLASSIFICATION_TYPE>U</CLASSIFICATION_TYPE><NORAD_CAT_ID>56725</NORAD_CAT_ID><ELEMENT_SET_NO>999</ELEMENT_SET_NO><REV_AT_EPOCH>11011</REV_AT_EPOCH><BSTAR>.24423E-3</BSTAR><MEAN_MOTION_DOT>.116E-5</MEAN_MOTION_DOT><MEAN_MOTION_DDOT>0</MEAN_MOTION_DDOT></tleParameters></data></segment></body></omm>
<omm id="CCSDS_OMM_VERS" version="2.0">
<header><CREATION_DATE/><ORIGINATOR/></header><body><segment><metadata><OBJECT_NAME>ONEWEB-0015</OBJECT_NAME><OBJECT_ID>2024-188A</OBJECT_ID><CENTER_NAME>EARTH</CENTER_NAME><REF_FRAME>TEME</REF_FRAME><TIME_SYSTEM>UTC</TIME_SYSTEM><MEAN_ELEMENT_THEORY>SGP4</MEAN_ELEMENT_THEORY></metadata><data><meanElements><EPOCH>2025-06-15T02:14:04.269408</EPOCH><MEAN_MOTION>13.11418924</MEAN_MOTION><ECCENTRICITY>.000158</ECCENTRICITY><INCLINATION>87.8868</INCLINATION><RA_OF_ASC_NODE>94.2607</RA_OF_ASC_NODE><ARG_OF_PERICENTER>62.3014</ARG_OF_PERICENTER><MEAN_ANOMALY>297.8274</MEAN_ANOMALY></meanElements><tleParameters><EPHEMERIS_TYPE>0</EPHEMERIS_TYPE><CLASSIFICATION_TYPE>U</CLASSIFICATION_TYPE><NORAD_CAT_ID>61594</NORAD_CAT_ID><ELEMENT_SET_NO>999</ELEMENT_SET_NO><REV_AT_EPOCH>3442</REV_AT_EPOCH><BSTAR>.1707E-2</BSTAR><MEAN_MOTION_DOT>.618E-5</MEAN_MOTION_DOT><MEAN_MOTION_DDOT>0</MEAN_MOTION_DDOT></tleParameters></data></segment></body></omm>
<omm id="CCSDS_OMM_VERS" version="2.0">
<header><CREATION_DATE/><ORIGINATOR/></header><body><segment><metadata><OBJECT_NAME>ONEWEB-0687</OBJECT_NAME><OBJECT_ID>2024-188B</OBJECT_ID><CENTER_NAME>EARTH</CENTER_NAME><REF_FRAME>TEME</REF_FRAME><TIME_SYSTEM>UTC</TIME_SYSTEM><MEAN_ELEMENT_THEORY>SGP4</MEAN_ELEMENT_THEORY></metadata><data><meanElements><EPOCH>2025-06-15T04:53:53.827008</EPOCH><MEAN_MOTION>13.30691391</MEAN_MOTION><ECCENTRICITY>.0002818</ECCENTRICITY><INCLINATION>87.9599</INCLINATION><RA_OF_ASC_NODE>78.9763</RA_OF_ASC_NODE><ARG_OF_PERICENTER>108.0106</ARG_OF_PERICENTER><MEAN_ANOMALY>252.1340</MEAN_ANOMALY></meanElements><tleParameters><EPHEMERIS_TYPE>0</EPHEMERIS_TYPE><CLASSIFICATION_TYPE>U</CLASSIFICATION_TYPE><NORAD_CAT_ID>61595</NORAD_CAT_ID><ELEMENT_SET_NO>999</ELEMENT_SET_NO><REV_AT_EPOCH>3584</REV_AT_EPOCH><BSTAR>.45324E-2</BSTAR><MEAN_MOTION_DOT>.2152E-4</MEAN_MOTION_DOT><MEAN_MOTION_DDOT>0</MEAN_MOTION_DDOT></tleParameters></data></segment></body></omm>
<omm id="CCSDS_OMM_VERS" version="2.0">
<header><CREATION_DATE/><ORIGINATOR/></header><body><segment><metadata><OBJECT_NAME>ONEWEB-0688</OBJECT_NAME><OBJECT_ID>2024-188C</OBJECT_ID><CENTER_NAME>EARTH</CENTER_NAME><REF_FRAME>TEME</REF_FRAME><TIME_SYSTEM>UTC</TIME_SYSTEM><MEAN_ELEMENT_THEORY>SGP4</MEAN_ELEMENT_THEORY></metadata><data><meanElements><EPOCH>2025-06-15T10:47:25.895328</EPOCH><MEAN_MOTION>13.30687127</MEAN_MOTION><ECCENTRICITY>.000122</ECCENTRICITY><INCLINATION>87.9599</INCLINATION><RA_OF_ASC_NODE>78.9258</RA_OF_ASC_NODE><ARG_OF_PERICENTER>69.0486</ARG_OF_PERICENTER><MEAN_ANOMALY>291.0784</MEAN_ANOMALY></meanElements><tleParameters><EPHEMERIS_TYPE>0</EPHEMERIS_TYPE><CLASSIFICATION_TYPE>U</CLASSIFICATION_TYPE><NORAD_CAT_ID>61596</NORAD_CAT_ID><ELEMENT_SET_NO>999</ELEMENT_SET_NO><REV_AT_EPOCH>3564</REV_AT_EPOCH><BSTAR>.15723E-3</BSTAR><MEAN_MOTION_DOT>.87E-6</MEAN_MOTION_DOT><MEAN_MOTION_DDOT>0</MEAN_MOTION_DDOT></tleParameters></data></segment></body></omm>
<omm id="CCSDS_OMM_VERS" version="2.0">
<header><CREATION_DATE/><ORIGINATOR/></header><body><segment><metadata><OBJECT_NAME>ONEWEB-0689</OBJECT_NAME><OBJECT_ID>2024-188D</OBJECT_ID><CENTER_NAME>EARTH</CENTER_NAME><REF_FRAME>TEME</REF_FRAME><TIME_SYSTEM>UTC</TIME_SYSTEM><MEAN_ELEMENT_THEORY>SGP4</MEAN_ELEMENT_THEORY></metadata><data><meanElements><EPOCH>2025-06-15T12:12:13.717440</EPOCH><MEAN_MOTION>13.11415440</MEAN_MOTION><ECCENTRICITY>.0002253</ECCENTRICITY><INCLINATION>87.8806</INCLINATION><RA_OF_ASC_NODE>94.1751</RA_OF_ASC_NODE><ARG_OF_PERICENTER>70.7817</ARG_OF_PERICENTER><MEAN_ANOMALY>289.3555</MEAN_ANOMALY></meanElements><tleParameters><EPHEMERIS_TYPE>0</EPHEMERIS_TYPE><CLASSIFICATION_TYPE>U</CLASSIFICATION_TYPE><NORAD_CAT_ID>61597</NORAD_CAT_ID><ELEMENT_SET_NO>999</ELEMENT_SET_NO><REV_AT_EPOCH>3452</REV_AT_EPOCH><BSTAR>-.10538E-2</BSTAR><MEAN_MOTION_DOT>-.361E-5</MEAN_MOTION_DOT><MEAN_MOTION_DDOT>0</MEAN_MOTION_DDOT></tleParameters></data></segment></body></omm>
<omm id="CCSDS_OMM_VERS" version="2.0">
<header><CREATION_DATE/><ORIGINATOR/></header><body><segment><metadata><OBJECT_NAME>ONEWEB-0690</OBJECT_NAME><OBJECT_ID>2024-188E</OBJECT_ID><CENTER_NAME>EARTH</CENTER_NAME><REF_FRAME>TEME</REF_FRAME><TIME_SYSTEM>UTC</TIME_SYSTEM><MEAN_ELEMENT_THEORY>SGP4</MEAN_ELEMENT_THEORY></metadata><data><meanElements><EPOCH>2025-06-15T06:57:15.408288</EPOCH><MEAN_MOTION>13.11414962</MEAN_MOTION><ECCENTRICITY>.0001795</ECCENTRICITY><INCLINATION>87.8856</INCLINATION><RA_OF_ASC_NODE>94.1589</RA_OF_ASC_NODE><ARG_OF_PERICENTER>100.7134</ARG_OF_PERICENTER><MEAN_ANOMALY>259.4196</MEAN_ANOMALY></meanElements><tleParameters><EPHEMERIS_TYPE>0</EPHEMERIS_TYPE><CLASSIFICATION_TYPE>U</CLASSIFICATION_TYPE><NORAD_CAT_ID>61598</NORAD_CAT_ID><ELEMENT_SET_NO>999</ELEMENT_SET_NO><REV_AT_EPOCH>3465</REV_AT_EPOCH><BSTAR>-.12591E-2</BSTAR><MEAN_MOTION_DOT>-.434E-5</MEAN_MOTION_DOT><MEAN_MOTION_DDOT>0</MEAN_MOTION_DDOT></tleParameters></data></segment></body></omm>
<omm id="CCSDS_OMM_VERS" version="2.0">
<header><CREATION_DATE/><ORIGINATOR/></header><body><segment><metadata><OBJECT_NAME>ONEWEB-0691</OBJECT_NAME><OBJECT_ID>2024-188F</OBJECT_ID><CENTER_NAME>EARTH</CENTER_NAME><REF_FRAME>TEME</REF_FRAME><TIME_SYSTEM>UTC</TIME_SYSTEM><MEAN_ELEMENT_THEORY>SGP4</MEAN_ELEMENT_THEORY></metadata><data><meanElements><EPOCH>2025-06-14T18:00:54.438912</EPOCH><MEAN_MOTION>13.11414351</MEAN_MOTION><ECCENTRICITY>.0001735</ECCENTRICITY><INCLINATION>87.8749</INCLINATION><RA_OF_ASC_NODE>94.3012</RA_OF_ASC_NODE><ARG_OF_PERICENTER>72.0677</ARG_OF_PERICENTER><MEAN_ANOMALY>288.0640</MEAN_ANOMALY></meanElements><tleParameters><EPHEMERIS_TYPE>0</EPHEMERIS_TYPE><CLASSIFICATION_TYPE>U</CLASSIFICATION_TYPE><NORAD_CAT_ID>61599</NORAD_CAT_ID><ELEMENT_SET_NO>999</ELEMENT_SET_NO><REV_AT_EPOCH>3632</REV_AT_EPOCH><BSTAR>.12423E-2</BSTAR><MEAN_MOTION_DOT>.453E-5</MEAN_MOTION_DOT><MEAN_MOTION_DDOT>0</MEAN_MOTION_DDOT></tleParameters></data></segment></body></omm>
<omm id="CCSDS_OMM_VERS" version="2.0">
<header><CREATION_DATE/><ORIGINATOR/></header><body><segment><metadata><OBJECT_NAME>ONEWEB-0692</OBJECT_NAME><OBJECT_ID>2024-188G</OBJECT_ID><CENTER_NAME>EARTH</CENTER_NAME><REF_FRAME>TEME</REF_FRAME><TIME_SYSTEM>UTC</TIME_SYSTEM><MEAN_ELEMENT_THEORY>SGP4</MEAN_ELEMENT_THEORY></metadata><data><meanElements><EPOCH>2025-06-15T01:49:40.016640</EPOCH><MEAN_MOTION>13.11418051</MEAN_MOTION><ECCENTRICITY>.0002947</ECCENTRICITY><INCLINATION>87.8835</INCLINATION><RA_OF_ASC_NODE>94.2825</RA_OF_ASC_NODE><ARG_OF_PERICENTER>82.8548</ARG_OF_PERICENTER><MEAN_ANOMALY>277.2914</MEAN_ANOMALY></meanElements><tleParameters><EPHEMERIS_TYPE>0</EPHEMERIS_TYPE><CLASSIFICATION_TYPE>U</CLASSIFICATION_TYPE><NORAD_CAT_ID>61600</NORAD_CAT_ID><ELEMENT_SET_NO>999</ELEMENT_SET_NO><REV_AT_EPOCH>3457</REV_AT_EPOCH><BSTAR>-.40884E-4</BSTAR><MEAN_MOTION_DOT>-.2E-7</MEAN_MOTION_DOT><MEAN_MOTION_DDOT>0</MEAN_MOTION_DDOT></tleParameters></data></segment></body></omm>
<omm id="CCSDS_OMM_VERS" version="2.0">
<header><CREATION_DATE/><ORIGINATOR/></header><body><segment><metadata><OBJECT_NAME>ONEWEB-0693</OBJECT_NAME><OBJECT_ID>2024-188H</OBJECT_ID><CENTER_NAME>EARTH</CENTER_NAME><REF_FRAME>TEME</REF_FRAME><TIME_SYSTEM>UTC</TIME_SYSTEM><MEAN_ELEMENT_THEORY>SGP4</MEAN_ELEMENT_THEORY></metadata><data><meanElements><EPOCH>2025-06-15T10:41:37.792320</EPOCH><MEAN_MOTION>13.30774918</MEAN_MOTION><ECCENTRICITY>.0003086</ECCENTRICITY><INCLINATION>87.9554</INCLINATION><RA_OF_ASC_NODE>78.9507</RA_OF_ASC_NODE><ARG_OF_PERICENTER>118.8438</ARG_OF_PERICENTER><MEAN_ANOMALY>241.3011</MEAN_ANOMALY></meanElements><tleParameters><EPHEMERIS_TYPE>0</EPHEMERIS_TYPE><CLASSIFICATION_TYPE>U</CLASSIFICATION_TYPE><NORAD_CAT_ID>61601</NORAD_CAT_ID><ELEMENT_SET_NO>999</ELEMENT_SET_NO><REV_AT_EPOCH>3580</REV_AT_EPOCH><BSTAR>.15839E-2</BSTAR><MEAN_MOTION_DOT>.761E-5</MEAN_MOTION_DOT><MEAN_MOTION_DDOT>0</MEAN_MOTION_DDOT></tleParameters></data></segment></body></omm>

</ndm>
